{"type": "FeatureCollection", "features": [{"type": "Feature", "geometry": {"type": "LineString", "coordinates": [[-104.6929192, 39.8372988], [-104.6928922, 39.8378525], [-104.6928912, 39.8379324]]}, "properties": {"class": "tertiary"}}, {"type": "Feature", "geometry": {"type": "LineString", "coordinates": [[-104.6761724, 39.8389783], [-104.6761559, 39.8368973]]}, "properties": {"class": "primary"}}, {"type": "Feature", "geometry": {"type": "LineString", "coordinates": [[-104.6718272, 39.8398627], [-104.6718271, 39.8400469], [-104.6718205, 39.8402278], [-104.671813, 39.8403778], [-104.6718013, 39.8405379], [-104.6717761, 39.8408558], [-104.6717504, 39.8411737], [-104.6717349, 39.8413081], [-104.6717013, 39.8415158], [-104.6716568, 39.8417137], [-104.67162, 39.8418227], [-104.671566, 39.8419273], [-104.6715002, 39.8420334], [-104.6713371, 39.8422405], [-104.6711617, 39.8424239]]}, "properties": {"class": "primary"}}, {"type": "Feature", "geometry": {"type": "LineString", "coordinates": [[-104.6735627, 39.8425673], [-104.6740713, 39.8421794]]}, "properties": {"class": "primary"}}, {"type": "Feature", "geometry": {"type": "LineString", "coordinates": [[-104.6684775, 39.8514935], [-104.668633, 39.8515012], [-104.6687831, 39.8515056], [-104.6692793, 39.8515124], [-104.669469, 39.8515149], [-104.6707395, 39.851511]]}, "properties": {"class": "secondary"}}, {"type": "Feature", "geometry": {"type": "LineString", "coordinates": [[-104.6684775, 39.8514935], [-104.6690769, 39.8515448], [-104.6694694, 39.8515698], [-104.6702679, 39.8516134], [-104.6705016, 39.8516241], [-104.6706169, 39.8516274], [-104.6707364, 39.8516295]]}, "properties": {"class": "primary"}}, {"type": "Feature", "geometry": {"type": "LineString", "coordinates": [[-104.6725701, 39.8447584], [-104.6728041, 39.843683], [-104.6728386, 39.8435567], [-104.6728855, 39.8434317], [-104.6729472, 39.8432992], [-104.6730159, 39.8431807], [-104.6730335, 39.8431539], [-104.6731077, 39.8430406]]}, "properties": {"class": "primary"}}, {"type": "Feature", "geometry": {"type": "LineString", "coordinates": [[-104.6718272, 39.8398627], [-104.6718359, 39.8399412], [-104.6718495, 39.8400305], [-104.6718632, 39.8401087], [-104.6718795, 39.8401909], [-104.6719057, 39.8403042], [-104.6719339, 39.8404107], [-104.671956, 39.8404873], [-104.6719821, 39.8405693], [-104.6720087, 39.8406473], [-104.6720413, 39.8407299], [-104.6720745, 39.8408022], [-104.6721137, 39.8408792], [-104.6721587, 39.8409535], [-104.6722037, 39.8410231], [-104.6722932, 39.8411402], [-104.6723874, 39.8412542]]}, "properties": {"class": "primary"}}, {"type": "Feature", "geometry": {"type": "LineString", "coordinates": [[-104.6752037, 39.8442919], [-104.6752608, 39.8444151], [-104.6753153, 39.8445506], [-104.6753523, 39.8446851], [-104.675376, 39.8448278], [-104.6754667, 39.8456201], [-104.675481, 39.8457768], [-104.6754848, 39.8458483], [-104.6754868, 39.8459249], [-104.6754852, 39.8459885], [-104.6754768, 39.846056], [-104.6754577, 39.8461593], [-104.67543, 39.8462545], [-104.6753968, 39.8463453], [-104.6753572, 39.8464322], [-104.6753158, 39.8465196], [-104.6752807, 39.8465958], [-104.6752472, 39.846692], [-104.6752227, 39.8467912], [-104.6752096, 39.8468744], [-104.6752056, 39.8469783]]}, "properties": {"class": "secondary"}}, {"type": "Feature", "geometry": {"type": "LineString", "coordinates": [[-104.6933543, 39.833481], [-104.6925452, 39.8334774]]}, "properties": {"class": "motorway"}}, {"type": "Feature", "geometry": {"type": "LineString", "coordinates": [[-104.6793413, 39.8515538], [-104.6795497, 39.8515273], [-104.6797964, 39.8514779], [-104.6800559, 39.8514035], [-104.6803391, 39.8513022], [-104.6805944, 39.8511882], [-104.6809166, 39.8510218], [-104.6811074, 39.8508867], [-104.6813551, 39.8506797], [-104.6815992, 39.8504347], [-104.6818554, 39.8500548], [-104.6819665, 39.8498336], [-104.6819899, 39.8497659]]}, "properties": {"class": "primary"}}, {"type": "Feature", "geometry": {"type": "LineString", "coordinates": [[-104.6740713, 39.8421794], [-104.6752302, 39.8412507], [-104.6753464, 39.841156], [-104.6754478, 39.8410668], [-104.6755421, 39.8409727], [-104.6756281, 39.8408728], [-104.675703, 39.8407771], [-104.6757617, 39.840693], [-104.6758258, 39.8406017], [-104.675889, 39.8404943], [-104.6759413, 39.8403877], [-104.6759813, 39.8402926], [-104.6760172, 39.8401908], [-104.676058, 39.8400606], [-104.6761048, 39.8398539], [-104.6761664, 39.8395078]]}, "properties": {"class": "primary"}}, {"type": "Feature", "geometry": {"type": "LineString", "coordinates": [[-104.6925381, 39.8342504], [-104.6933277, 39.8342588]]}, "properties": {"class": "motorway"}}, {"type": "Feature", "geometry": {"type": "LineString", "coordinates": [[-104.6933277, 39.8342588], [-104.7007129, 39.8343033], [-104.7036379, 39.8343242], [-104.7151453, 39.834401]]}, "properties": {"class": "motorway"}}, {"type": "Feature", "geometry": {"type": "LineString", "coordinates": [[-104.6814009, 39.8510566], [-104.681424, 39.8510328], [-104.6815453, 39.850908], [-104.6816827, 39.8507561], [-104.6817802, 39.8506395], [-104.6818687, 39.8505272], [-104.6819564, 39.8504104], [-104.6820428, 39.8502788], [-104.6820595, 39.8502506], [-104.6821148, 39.8501568], [-104.6821847, 39.8500256], [-104.6822367, 39.8499091], [-104.6822879, 39.8497868], [-104.6823346, 39.8496565], [-104.6823739, 39.8495225], [-104.6824105, 39.8493884], [-104.6824401, 39.8492452], [-104.6824542, 39.8491147], [-104.6824599, 39.8489865], [-104.6824658, 39.8483895]]}, "properties": {"class": "tertiary"}}, {"type": "Feature", "geometry": {"type": "LineString", "coordinates": [[-104.6761559, 39.8368973], [-104.6761845, 39.8365978], [-104.6761932, 39.8363723], [-104.6762314, 39.8361331], [-104.6763018, 39.8359204], [-104.6763974, 39.8357178], [-104.6765235, 39.8355152], [-104.6766352, 39.8353359], [-104.6767922, 39.8351519], [-104.6769376, 39.835012], [-104.6772121, 39.8347883], [-104.6774259, 39.8346475], [-104.6776103, 39.8345494], [-104.6778809, 39.8344161], [-104.6782029, 39.8343019], [-104.6784546, 39.8342237], [-104.6787323, 39.8341683], [-104.678975, 39.8341368], [-104.6792553, 39.8341198], [-104.6795276, 39.8341181], [-104.6822254, 39.8341483]]}, "properties": {"class": "primary"}}, {"type": "Feature", "geometry": {"type": "LineString", "coordinates": [[-104.6718594, 39.8372381], [-104.6718589, 39.8372761], [-104.6718272, 39.8398627]]}, "properties": {"class": "primary"}}, {"type": "Feature", "geometry": {"type": "LineString", "coordinates": [[-104.6925452, 39.8334774], [-104.6886409, 39.8334708], [-104.6867806, 39.833451], [-104.6848561, 39.8334214]]}, "properties": {"class": "motorway"}}, {"type": "Feature", "geometry": {"type": "LineString", "coordinates": [[-104.689992, 39.8379811], [-104.6906063, 39.8380486], [-104.6912465, 39.8380562], [-104.6915357, 39.838063]]}, "properties": {"class": "tertiary"}}, {"type": "Feature", "geometry": {"type": "LineString", "coordinates": [[-104.6928897, 39.8380726], [-104.6929796, 39.8380738], [-104.6930188, 39.8380739], [-104.6933078, 39.8380747], [-104.6937288, 39.8380757], [-104.6941578, 39.8380717], [-104.6945858, 39.8380659], [-104.6950115, 39.8380636], [-104.6954414, 39.8380647], [-104.6958625, 39.8380656], [-104.6961944, 39.8380669]]}, "properties": {"class": "tertiary"}}, {"type": "Feature", "geometry": {"type": "LineString", "coordinates": [[-104.6731077, 39.8430406], [-104.6731925, 39.8429264], [-104.6732685, 39.8428288], [-104.6733609, 39.8427397], [-104.673461, 39.8426501], [-104.6735627, 39.8425673]]}, "properties": {"class": "primary"}}, {"type": "Feature", "geometry": {"type": "LineString", "coordinates": [[-104.6725871, 39.8482198], [-104.6725837, 39.8481667], [-104.6725772, 39.8481145], [-104.6725647, 39.8480342], [-104.6725484, 39.8479226], [-104.67254, 39.8478475], [-104.6725369, 39.8477869], [-104.6725322, 39.8469595]]}, "properties": {"class": "secondary"}}, {"type": "Feature", "geometry": {"type": "LineString", "coordinates": [[-104.6725527, 39.8505214], [-104.6725594, 39.8499059], [-104.6725624, 39.8496514], [-104.6725665, 39.8493551], [-104.6725692, 39.8490842], [-104.6725871, 39.8482198]]}, "properties": {"class": "secondary"}}, {"type": "Feature", "geometry": {"type": "LineString", "coordinates": [[-104.6725801, 39.8462299], [-104.6725639, 39.8461768], [-104.6725352, 39.8460643], [-104.6725178, 39.8459513], [-104.6725107, 39.8458401]]}, "properties": {"class": "primary"}}, {"type": "Feature", "geometry": {"type": "LineString", "coordinates": [[-104.6715498, 39.8516328], [-104.6715896, 39.8516317], [-104.6716339, 39.8516292], [-104.6716846, 39.851625], [-104.6717361, 39.8516196], [-104.6717916, 39.8516106], [-104.6718371, 39.8516012], [-104.6718838, 39.8515892], [-104.6719631, 39.851567], [-104.6720435, 39.8515403], [-104.6721652, 39.8514879], [-104.6722589, 39.8514346]]}, "properties": {"class": "primary"}}, {"type": "Feature", "geometry": {"type": "LineString", "coordinates": [[-104.672524, 39.8508561], [-104.6725354, 39.8507965], [-104.6725459, 39.8507203], [-104.6725505, 39.8506638], [-104.6725527, 39.8505214]]}, "properties": {"class": "secondary"}}, {"type": "Feature", "geometry": {"type": "LineString", "coordinates": [[-104.6725322, 39.8469595], [-104.672523, 39.8468904], [-104.6725137, 39.8468051], [-104.6725008, 39.8467245], [-104.6724825, 39.8466401], [-104.672456, 39.8465528], [-104.6724258, 39.8464684], [-104.6723918, 39.8463783], [-104.6723504, 39.8462592]]}, "properties": {"class": "secondary"}}, {"type": "Feature", "geometry": {"type": "LineString", "coordinates": [[-104.6751131, 39.8482214], [-104.675106, 39.8488426], [-104.6751031, 39.8490988], [-104.6751006, 39.8493721], [-104.6750966, 39.8496729], [-104.6750938, 39.8499249]]}, "properties": {"class": "secondary"}}, {"type": "Feature", "geometry": {"type": "LineString", "coordinates": [[-104.6751079, 39.8508165], [-104.6751291, 39.8508897], [-104.6751568, 39.8509582], [-104.6751718, 39.8509901], [-104.6752029, 39.8510451], [-104.6752418, 39.8511052], [-104.6753183, 39.8511953], [-104.6754012, 39.8512677], [-104.6755085, 39.8513472], [-104.6756354, 39.8514202], [-104.6757727, 39.8514771], [-104.6758645, 39.8515051], [-104.675951, 39.8515232], [-104.6760742, 39.8515383], [-104.6761511, 39.8515424], [-104.6762234, 39.8515453], [-104.6769378, 39.8515609], [-104.6786307, 39.8515663], [-104.6789846, 39.8515628], [-104.6791605, 39.8515594], [-104.6793413, 39.8515538]]}, "properties": {"class": "secondary"}}, {"type": "Feature", "geometry": {"type": "LineString", "coordinates": [[-104.6751797, 39.8476575], [-104.6751715, 39.8479373], [-104.6751624, 39.8479982], [-104.6751188, 39.8481771], [-104.6751131, 39.8482214]]}, "properties": {"class": "secondary"}}, {"type": "Feature", "geometry": {"type": "LineString", "coordinates": [[-104.675133, 39.8463718], [-104.6750921, 39.8465039], [-104.6750739, 39.8466156], [-104.675064, 39.8467574], [-104.6750617, 39.8469487], [-104.6750507, 39.8477812], [-104.6750397, 39.8480231], [-104.6750353, 39.848063], [-104.6750117, 39.848182], [-104.6750064, 39.8482267]]}, "properties": {"class": "primary"}}, {"type": "Feature", "geometry": {"type": "LineString", "coordinates": [[-104.6750897, 39.8506224], [-104.6750894, 39.8506293], [-104.6750952, 39.8507246], [-104.6751079, 39.8508165]]}, "properties": {"class": "secondary"}}, {"type": "Feature", "geometry": {"type": "LineString", "coordinates": [[-104.6752359, 39.8513405], [-104.6753553, 39.8514361], [-104.6754827, 39.8515144], [-104.6755985, 39.8515673], [-104.675712, 39.8516053], [-104.6758535, 39.8516415], [-104.6759567, 39.8516559], [-104.67606, 39.8516643], [-104.6768642, 39.8516686], [-104.6772308, 39.8516652], [-104.6774664, 39.8516585], [-104.6777086, 39.8516484], [-104.6793413, 39.8515538]]}, "properties": {"class": "primary"}}, {"type": "Feature", "geometry": {"type": "LineString", "coordinates": [[-104.674141, 39.8425576], [-104.6742427, 39.8426594], [-104.6743311, 39.842769], [-104.6744051, 39.8428838], [-104.6746483, 39.8432994]]}, "properties": {"class": "primary"}}, {"type": "Feature", "geometry": {"type": "LineString", "coordinates": [[-104.6773155, 39.8429299], [-104.6769562, 39.8426689], [-104.6766544, 39.8424351], [-104.6765506, 39.8423358], [-104.6764445, 39.8422149], [-104.6763639, 39.8420937], [-104.6763036, 39.841971], [-104.6762491, 39.8418641], [-104.6761993, 39.8417248], [-104.6761728, 39.8415925], [-104.6761604, 39.8414459], [-104.6761517, 39.8413345], [-104.6761517, 39.8412481], [-104.6761515, 39.8411468], [-104.6761569, 39.8408074], [-104.6761692, 39.8403519], [-104.6761664, 39.8395078]]}, "properties": {"class": "primary"}}, {"type": "Feature", "geometry": {"type": "LineString", "coordinates": [[-104.6777187, 39.8432342], [-104.6773155, 39.8429299]]}, "properties": {"class": "primary"}}, {"type": "Feature", "geometry": {"type": "LineString", "coordinates": [[-104.6791039, 39.8379364], [-104.6791735, 39.8379197], [-104.6792837, 39.8378992], [-104.6794122, 39.8378844], [-104.6795536, 39.8378797], [-104.6797566, 39.8378801]]}, "properties": {"class": "tertiary"}}, {"type": "Feature", "geometry": {"type": "LineString", "coordinates": [[-104.6833637, 39.8379035], [-104.6854529, 39.8379172], [-104.6860153, 39.8379244]]}, "properties": {"class": "tertiary"}}, {"type": "Feature", "geometry": {"type": "LineString", "coordinates": [[-104.687035, 39.8379576], [-104.6873511, 39.8379627], [-104.6876411, 39.8379631]]}, "properties": {"class": "tertiary"}}, {"type": "Feature", "geometry": {"type": "LineString", "coordinates": [[-104.6912466, 39.8379132], [-104.6905664, 39.8378997]]}, "properties": {"class": "tertiary"}}, {"type": "Feature", "geometry": {"type": "LineString", "coordinates": [[-104.6711617, 39.8424239], [-104.671061, 39.842532], [-104.670308, 39.8430888], [-104.6702057, 39.8431645], [-104.6679822, 39.8448087], [-104.6676729, 39.845029], [-104.6666216, 39.8457794], [-104.6664155, 39.8459269], [-104.6662654, 39.8460496], [-104.6661793, 39.8461287], [-104.6661008, 39.8462084], [-104.6660104, 39.846313], [-104.6659032, 39.8464583], [-104.6658064, 39.8466165], [-104.6657329, 39.8467728], [-104.6656802, 39.8469225], [-104.6656425, 39.8470864], [-104.665623, 39.8472868]]}, "properties": {"class": "primary"}}, {"type": "Feature", "geometry": {"type": "LineString", "coordinates": [[-104.6752037, 39.8442919], [-104.6752265, 39.8443674], [-104.6752473, 39.8444488], [-104.6752618, 39.8445323], [-104.6752742, 39.8446267], [-104.6752844, 39.8447389], [-104.6752886, 39.8448659], [-104.6752857, 39.8450298], [-104.6752831, 39.8452035], [-104.6752776, 39.8456073], [-104.6752768, 39.8457946], [-104.6752696, 39.8459038], [-104.6752546, 39.8460085], [-104.6752185, 39.8461479], [-104.6751796, 39.8462599], [-104.675133, 39.8463718]]}, "properties": {"class": "primary"}}, {"type": "Feature", "geometry": {"type": "LineString", "coordinates": [[-104.6935737, 39.8379295], [-104.6930555, 39.8379354], [-104.6930257, 39.8379353], [-104.6928912, 39.8379324]]}, "properties": {"class": "tertiary"}}, {"type": "Feature", "geometry": {"type": "LineString", "coordinates": [[-104.6719524, 39.836076], [-104.6718594, 39.8372381]]}, "properties": {"class": "primary"}}, {"type": "Feature", "geometry": {"type": "LineString", "coordinates": [[-104.6720516, 39.8355411], [-104.6720063, 39.8356902], [-104.6719758, 39.8358429], [-104.6719524, 39.836076]]}, "properties": {"class": "primary"}}, {"type": "Feature", "geometry": {"type": "LineString", "coordinates": [[-104.6725107, 39.8458401], [-104.6725123, 39.8452397], [-104.6725169, 39.8451116], [-104.6725287, 39.8449956], [-104.672547, 39.844877], [-104.6725701, 39.8447584]]}, "properties": {"class": "primary"}}, {"type": "Feature", "geometry": {"type": "LineString", "coordinates": [[-104.6724793, 39.8413554], [-104.6725789, 39.8414536], [-104.6726628, 39.8415323], [-104.6727467, 39.8416033], [-104.6728584, 39.8416835]]}, "properties": {"class": "primary"}}, {"type": "Feature", "geometry": {"type": "LineString", "coordinates": [[-104.6726617, 39.8506079], [-104.6726637, 39.8505095], [-104.6726655, 39.8493562], [-104.6726701, 39.8483295], [-104.6726707, 39.8481973]]}, "properties": {"class": "primary"}}, {"type": "Feature", "geometry": {"type": "LineString", "coordinates": [[-104.6723504, 39.8462592], [-104.6723273, 39.8461762], [-104.6723173, 39.8461221], [-104.6723053, 39.8460257], [-104.6723042, 39.8459261], [-104.6723322, 39.8457385], [-104.6724674, 39.8451565], [-104.6725701, 39.8447584]]}, "properties": {"class": "secondary"}}, {"type": "Feature", "geometry": {"type": "LineString", "coordinates": [[-104.6730933, 39.8418401], [-104.6737347, 39.8422561], [-104.6739356, 39.8423916], [-104.6740428, 39.8424742], [-104.674141, 39.8425576]]}, "properties": {"class": "primary"}}, {"type": "Feature", "geometry": {"type": "LineString", "coordinates": [[-104.6749755, 39.8504957], [-104.6749753, 39.850631], [-104.6749778, 39.8507626], [-104.6749861, 39.8508705], [-104.6750003, 39.8509561], [-104.6750224, 39.8510347], [-104.6750565, 39.8511156], [-104.6751003, 39.8511876], [-104.6751671, 39.8512699], [-104.6752359, 39.8513405]]}, "properties": {"class": "primary"}}, {"type": "Feature", "geometry": {"type": "LineString", "coordinates": [[-104.6822254, 39.8341483], [-104.6865669, 39.8341918]]}, "properties": {"class": "primary"}}, {"type": "Feature", "geometry": {"type": "LineString", "coordinates": [[-104.6800678, 39.8449657], [-104.6787808, 39.8439981], [-104.6777187, 39.8432342]]}, "properties": {"class": "primary"}}, {"type": "Feature", "geometry": {"type": "LineString", "coordinates": [[-104.6772545, 39.8333656], [-104.6761055, 39.8333573], [-104.6757255, 39.833367], [-104.6753455, 39.8333922], [-104.6750257, 39.8334304], [-104.6747701, 39.8334719], [-104.6745232, 39.8335245], [-104.6742146, 39.8336155], [-104.6739289, 39.8337198], [-104.6737695, 39.8337919], [-104.6736215, 39.8338662], [-104.6734083, 39.8339901], [-104.6732066, 39.834114], [-104.6730131, 39.834248], [-104.6728467, 39.8343928], [-104.6726802, 39.8345543], [-104.6725535, 39.8346943], [-104.6724267, 39.8348538], [-104.6722998, 39.8350427], [-104.6721814, 39.8352446], [-104.6720516, 39.8355411]]}, "properties": {"class": "primary"}}, {"type": "Feature", "geometry": {"type": "LineString", "coordinates": [[-104.6707364, 39.8516295], [-104.6715498, 39.8516328]]}, "properties": {"class": "primary"}}, {"type": "Feature", "geometry": {"type": "LineString", "coordinates": [[-104.6707395, 39.851511], [-104.6713652, 39.8515116], [-104.6714643, 39.8515096], [-104.6715347, 39.8515063], [-104.6716359, 39.8514971], [-104.6717664, 39.8514745], [-104.6719026, 39.8514354], [-104.6720128, 39.8513886], [-104.6721157, 39.8513367], [-104.672214, 39.8512787], [-104.6722982, 39.8512113], [-104.6723676, 39.85114], [-104.6724373, 39.8510497], [-104.6724894, 39.8509532], [-104.672524, 39.8508561]]}, "properties": {"class": "secondary"}}, {"type": "Feature", "geometry": {"type": "LineString", "coordinates": [[-104.6722589, 39.8514346], [-104.6723655, 39.8513508], [-104.6724507, 39.8512664], [-104.6725221, 39.8511776], [-104.6725839, 39.8510779], [-104.6726174, 39.8510053], [-104.6726376, 39.8509378], [-104.6726491, 39.8508841], [-104.6726579, 39.850802], [-104.6726602, 39.8507128], [-104.6726617, 39.8506079]]}, "properties": {"class": "primary"}}, {"type": "Feature", "geometry": {"type": "LineString", "coordinates": [[-104.6750064, 39.8482267], [-104.6750052, 39.8483086], [-104.6749894, 39.8493696], [-104.6749755, 39.8504957]]}, "properties": {"class": "primary"}}, {"type": "Feature", "geometry": {"type": "LineString", "coordinates": [[-104.6808976, 39.8514113], [-104.6810804, 39.8513035], [-104.6811948, 39.8512261], [-104.6813185, 39.8511323], [-104.6814009, 39.8510566]]}, "properties": {"class": "tertiary"}}, {"type": "Feature", "geometry": {"type": "LineString", "coordinates": [[-104.680344, 39.8516687], [-104.6804934, 39.851606], [-104.6805528, 39.8515788], [-104.6806524, 39.8515333], [-104.6807962, 39.8514612], [-104.6808976, 39.8514113]]}, "properties": {"class": "tertiary"}}, {"type": "Feature", "geometry": {"type": "LineString", "coordinates": [[-104.6929824, 39.8314222], [-104.692986, 39.8312782], [-104.6929814, 39.8308938]]}, "properties": {"class": "secondary"}}, {"type": "Feature", "geometry": {"type": "LineString", "coordinates": [[-104.6929824, 39.8314222], [-104.6928959, 39.8317261]]}, "properties": {"class": "secondary"}}, {"type": "Feature", "geometry": {"type": "LineString", "coordinates": [[-104.6936798, 39.8314422], [-104.6932294, 39.8314188], [-104.6929824, 39.8314222]]}, "properties": {"class": "tertiary"}}, {"type": "Feature", "geometry": {"type": "LineString", "coordinates": [[-104.6928959, 39.8317261], [-104.6929056, 39.8325358]]}, "properties": {"class": "secondary"}}, {"type": "Feature", "geometry": {"type": "LineString", "coordinates": [[-104.6929056, 39.8325358], [-104.6929123, 39.8327155], [-104.6929153, 39.8327796], [-104.6929274, 39.8328297], [-104.692956, 39.8329033], [-104.6929921, 39.8329543], [-104.6930621, 39.8330578]]}, "properties": {"class": "secondary"}}, {"type": "Feature", "geometry": {"type": "LineString", "coordinates": [[-104.6929572, 39.8365768], [-104.6929479, 39.8367542], [-104.6929192, 39.8372988]]}, "properties": {"class": "tertiary"}}, {"type": "Feature", "geometry": {"type": "LineString", "coordinates": [[-104.6905664, 39.8378997], [-104.689992, 39.8379811]]}, "properties": {"class": "tertiary"}}, {"type": "Feature", "geometry": {"type": "LineString", "coordinates": [[-104.6919453, 39.8379181], [-104.6912466, 39.8379132]]}, "properties": {"class": "tertiary"}}, {"type": "Feature", "geometry": {"type": "LineString", "coordinates": [[-104.6928912, 39.8379324], [-104.6919453, 39.8379181]]}, "properties": {"class": "tertiary"}}, {"type": "Feature", "geometry": {"type": "LineString", "coordinates": [[-104.6876411, 39.8379631], [-104.6886471, 39.8379743], [-104.6893752, 39.8379725]]}, "properties": {"class": "tertiary"}}, {"type": "Feature", "geometry": {"type": "LineString", "coordinates": [[-104.6893752, 39.8379725], [-104.689992, 39.8379811]]}, "properties": {"class": "tertiary"}}, {"type": "Feature", "geometry": {"type": "LineString", "coordinates": [[-104.6915357, 39.838063], [-104.6927281, 39.8380725], [-104.6928897, 39.8380726]]}, "properties": {"class": "tertiary"}}, {"type": "Feature", "geometry": {"type": "LineString", "coordinates": [[-104.6746483, 39.8432994], [-104.6750593, 39.8440061], [-104.6752037, 39.8442919]]}, "properties": {"class": "primary"}}, {"type": "Feature", "geometry": {"type": "LineString", "coordinates": [[-104.6752056, 39.8469783], [-104.6751842, 39.8475401], [-104.6751797, 39.8476575]]}, "properties": {"class": "secondary"}}, {"type": "Feature", "geometry": {"type": "LineString", "coordinates": [[-104.665623, 39.8472868], [-104.6655755, 39.8478329], [-104.6655623, 39.8487921], [-104.6655642, 39.848929], [-104.6655741, 39.8491136], [-104.6655815, 39.8491948], [-104.6656003, 39.849323], [-104.6656172, 39.8494147], [-104.6656478, 39.8495353], [-104.6656775, 39.8496311], [-104.6657207, 39.849744], [-104.6657536, 39.84982], [-104.6658159, 39.8499401]]}, "properties": {"class": "primary"}}, {"type": "Feature", "geometry": {"type": "LineString", "coordinates": [[-104.6848561, 39.8334214], [-104.6809062, 39.833377]]}, "properties": {"class": "primary"}}, {"type": "Feature", "geometry": {"type": "LineString", "coordinates": [[-104.6993486, 39.8335143], [-104.6933543, 39.833481]]}, "properties": {"class": "motorway"}}, {"type": "Feature", "geometry": {"type": "LineString", "coordinates": [[-104.6865669, 39.8341918], [-104.6925381, 39.8342504]]}, "properties": {"class": "motorway"}}, {"type": "Feature", "geometry": {"type": "LineString", "coordinates": [[-104.6728584, 39.8416835], [-104.6730933, 39.8418401]]}, "properties": {"class": "primary"}}, {"type": "Feature", "geometry": {"type": "LineString", "coordinates": [[-104.6819899, 39.8497659], [-104.6820772, 39.8495183], [-104.682116, 39.849303], [-104.6821345, 39.8483872]]}, "properties": {"class": "primary"}}, {"type": "Feature", "geometry": {"type": "LineString", "coordinates": [[-104.6821033, 39.8479506], [-104.682101, 39.8472618], [-104.6820935, 39.8471417], [-104.6820778, 39.8470286], [-104.6820555, 39.8469266], [-104.6820212, 39.8468144], [-104.6819835, 39.8467062], [-104.6819344, 39.8465988], [-104.6818828, 39.8464985], [-104.6818289, 39.846409], [-104.6817625, 39.8463111], [-104.6816887, 39.8462133], [-104.6815981, 39.8461131], [-104.6815049, 39.8460211], [-104.6814138, 39.8459377], [-104.6813155, 39.8458559]]}, "properties": {"class": "primary"}}, {"type": "Feature", "geometry": {"type": "LineString", "coordinates": [[-104.6813155, 39.8458559], [-104.6811999, 39.84577], [-104.680103, 39.8449916], [-104.6800678, 39.8449657]]}, "properties": {"class": "primary"}}, {"type": "Feature", "geometry": {"type": "LineString", "coordinates": [[-104.6726707, 39.8481973], [-104.6726947, 39.8467658], [-104.6726869, 39.8466161], [-104.6726767, 39.8465322], [-104.6726589, 39.8464551], [-104.6726336, 39.8463724], [-104.6725801, 39.8462299]]}, "properties": {"class": "primary"}}, {"type": "Feature", "geometry": {"type": "LineString", "coordinates": [[-104.6761664, 39.8395078], [-104.6761724, 39.8389783]]}, "properties": {"class": "primary"}}, {"type": "Feature", "geometry": {"type": "LineString", "coordinates": [[-104.6973276, 39.8328595], [-104.6971358, 39.8328124], [-104.6969703, 39.8327654], [-104.6967886, 39.8327073], [-104.6966057, 39.8326414], [-104.696436, 39.8325744], [-104.6963477, 39.8325337], [-104.6959967, 39.8323721], [-104.6956513, 39.8322136], [-104.6954971, 39.8321419], [-104.6953974, 39.832096], [-104.6953004, 39.8320523], [-104.6952071, 39.8320081], [-104.6950548, 39.8319411], [-104.6949109, 39.8318744], [-104.6948226, 39.8318386], [-104.6947253, 39.8317948], [-104.6945768, 39.8317331], [-104.6944113, 39.8316572], [-104.6942435, 39.8315968], [-104.6940741, 39.8315424], [-104.6939395, 39.8314993]]}, "properties": {"class": "tertiary"}}, {"type": "Feature", "geometry": {"type": "LineString", "coordinates": [[-104.6783825, 39.8389147], [-104.6783876, 39.8388198], [-104.6784021, 39.8387168], [-104.6784234, 39.8386111], [-104.6784587, 39.8384925], [-104.6785016, 39.8383793], [-104.6785687, 39.8382763], [-104.6786733, 39.8381568], [-104.6787776, 39.8380861], [-104.6788893, 39.8380216], [-104.6789655, 39.8379844], [-104.6790207, 39.8379629]]}, "properties": {"class": "tertiary"}}, {"type": "Feature", "geometry": {"type": "LineString", "coordinates": [[-104.6783778, 39.8392652], [-104.6783784, 39.8392196], [-104.6783825, 39.8389147]]}, "properties": {"class": "tertiary"}}, {"type": "Feature", "geometry": {"type": "LineString", "coordinates": [[-104.6797566, 39.8378801], [-104.6802005, 39.837881]]}, "properties": {"class": "tertiary"}}, {"type": "Feature", "geometry": {"type": "LineString", "coordinates": [[-104.6802005, 39.837881], [-104.6803151, 39.8378819], [-104.6804239, 39.8378827]]}, "properties": {"class": "tertiary"}}, {"type": "Feature", "geometry": {"type": "LineString", "coordinates": [[-104.6804239, 39.8378827], [-104.6814727, 39.8378908], [-104.681827, 39.8378935]]}, "properties": {"class": "tertiary"}}, {"type": "Feature", "geometry": {"type": "LineString", "coordinates": [[-104.681827, 39.8378935], [-104.6833637, 39.8379035]]}, "properties": {"class": "tertiary"}}, {"type": "Feature", "geometry": {"type": "LineString", "coordinates": [[-104.6860153, 39.8379244], [-104.6868294, 39.8379556]]}, "properties": {"class": "tertiary"}}, {"type": "Feature", "geometry": {"type": "LineString", "coordinates": [[-104.6868294, 39.8379556], [-104.687035, 39.8379576]]}, "properties": {"class": "tertiary"}}, {"type": "Feature", "geometry": {"type": "LineString", "coordinates": [[-104.666052, 39.850297], [-104.6662219, 39.8504826], [-104.6664043, 39.8506535], [-104.6666043, 39.8508213], [-104.6668337, 39.8509714], [-104.6670686, 39.8510913], [-104.6673206, 39.8512126], [-104.6674769, 39.8512759], [-104.667672, 39.8513427], [-104.667819, 39.8513845]]}, "properties": {"class": "primary"}}, {"type": "Feature", "geometry": {"type": "LineString", "coordinates": [[-104.6658159, 39.8499401], [-104.6658356, 39.8499765], [-104.6659086, 39.8500982], [-104.666052, 39.850297]]}, "properties": {"class": "primary"}}, {"type": "Feature", "geometry": {"type": "LineString", "coordinates": [[-104.693136, 39.8352147], [-104.6931225, 39.8351431], [-104.6930934, 39.8350723], [-104.693068, 39.835013], [-104.6930348, 39.8349467], [-104.6929908, 39.8348507]]}, "properties": {"class": "tertiary"}}, {"type": "Feature", "geometry": {"type": "LineString", "coordinates": [[-104.667819, 39.8513845], [-104.6679026, 39.8514024], [-104.6680811, 39.8514367], [-104.6682437, 39.8514649], [-104.6683505, 39.8514802], [-104.6684775, 39.8514935]]}, "properties": {"class": "primary"}}, {"type": "Feature", "geometry": {"type": "LineString", "coordinates": [[-104.6940088, 39.8379307], [-104.6935737, 39.8379295]]}, "properties": {"class": "tertiary"}}, {"type": "Feature", "geometry": {"type": "LineString", "coordinates": [[-104.6928541, 39.8355454], [-104.692852, 39.8358495]]}, "properties": {"class": "tertiary"}}, {"type": "Feature", "geometry": {"type": "LineString", "coordinates": [[-104.6790207, 39.8379629], [-104.6791039, 39.8379364]]}, "properties": {"class": "tertiary"}}, {"type": "Feature", "geometry": {"type": "LineString", "coordinates": [[-104.6939395, 39.8314993], [-104.6936798, 39.8314422]]}, "properties": {"class": "tertiary"}}, {"type": "Feature", "geometry": {"type": "LineString", "coordinates": [[-104.6989992, 39.8329978], [-104.6984329, 39.8329945], [-104.6982857, 39.8329901], [-104.6981272, 39.8329794], [-104.6979626, 39.832963], [-104.6978045, 39.8329451], [-104.6976394, 39.8329191], [-104.6974765, 39.8328894], [-104.6973276, 39.8328595]]}, "properties": {"class": "tertiary"}}, {"type": "Feature", "geometry": {"type": "LineString", "coordinates": [[-104.6974745, 39.8380737], [-104.6976975, 39.8380759], [-104.6997729, 39.8380903]]}, "properties": {"class": "tertiary"}}, {"type": "Feature", "geometry": {"type": "LineString", "coordinates": [[-104.6977233, 39.8379546], [-104.6974409, 39.8379527], [-104.6967629, 39.8379484], [-104.6956339, 39.8379411], [-104.6940088, 39.8379307]]}, "properties": {"class": "tertiary"}}, {"type": "Feature", "geometry": {"type": "LineString", "coordinates": [[-104.6971689, 39.8380725], [-104.6974745, 39.8380737]]}, "properties": {"class": "tertiary"}}, {"type": "Feature", "geometry": {"type": "LineString", "coordinates": [[-104.6965283, 39.8380674], [-104.6971689, 39.8380725]]}, "properties": {"class": "tertiary"}}, {"type": "Feature", "geometry": {"type": "LineString", "coordinates": [[-104.692858, 39.8352312], [-104.6928541, 39.8355454]]}, "properties": {"class": "tertiary"}}, {"type": "Feature", "geometry": {"type": "LineString", "coordinates": [[-104.6990387, 39.8379635], [-104.6977233, 39.8379546]]}, "properties": {"class": "tertiary"}}, {"type": "Feature", "geometry": {"type": "LineString", "coordinates": [[-104.6961944, 39.8380669], [-104.6965283, 39.8380674]]}, "properties": {"class": "tertiary"}}, {"type": "Feature", "geometry": {"type": "LineString", "coordinates": [[-104.6750938, 39.8499249], [-104.6750897, 39.8506224]]}, "properties": {"class": "secondary"}}, {"type": "Feature", "geometry": {"type": "LineString", "coordinates": [[-104.6821345, 39.8483872], [-104.6821033, 39.8479506]]}, "properties": {"class": "primary"}}, {"type": "Feature", "geometry": {"type": "LineString", "coordinates": [[-104.6824658, 39.8483895], [-104.6824802, 39.8469521], [-104.6824757, 39.8468346], [-104.6824647, 39.8467238], [-104.6824485, 39.8466107], [-104.6824212, 39.846498], [-104.6823846, 39.846382], [-104.6823398, 39.8462661], [-104.6822881, 39.846155], [-104.6822323, 39.8460476], [-104.6821648, 39.8459372], [-104.6820728, 39.8458126], [-104.6819675, 39.8456873], [-104.6818468, 39.8455648], [-104.6817192, 39.8454528], [-104.6815782, 39.8453436], [-104.680756, 39.8447438], [-104.6801199, 39.8442797], [-104.6790565, 39.8435038], [-104.6789506, 39.8434197], [-104.6788409, 39.8433198], [-104.6787427, 39.8432167], [-104.6786564, 39.8431098], [-104.6786482, 39.8430993], [-104.6785623, 39.8429711], [-104.6784965, 39.8428475], [-104.6783972, 39.8425749], [-104.678357, 39.8423883], [-104.678349, 39.8422696], [-104.6783451, 39.842133], [-104.6783636, 39.8405519], [-104.6783746, 39.8395851], [-104.6783778, 39.8392652]]}, "properties": {"class": "tertiary"}}, {"type": "Feature", "geometry": {"type": "LineString", "coordinates": [[-104.6930604, 39.8355423], [-104.6930996, 39.8353851], [-104.6931275, 39.8352856], [-104.693136, 39.8352147]]}, "properties": {"class": "tertiary"}}, {"type": "Feature", "geometry": {"type": "LineString", "coordinates": [[-104.6931613, 39.8326571], [-104.6931358, 39.83175], [-104.6929824, 39.8314222]]}, "properties": {"class": "secondary"}}, {"type": "Feature", "geometry": {"type": "LineString", "coordinates": [[-104.6928912, 39.8379324], [-104.6928897, 39.8380726]]}, "properties": {"class": "tertiary"}}, {"type": "Feature", "geometry": {"type": "LineString", "coordinates": [[-104.6930621, 39.8330578], [-104.6930932, 39.833118], [-104.6931269, 39.8332095], [-104.6931404, 39.8332789], [-104.6931447, 39.8333577]]}, "properties": {"class": "secondary"}}, {"type": "Feature", "geometry": {"type": "LineString", "coordinates": [[-104.6930621, 39.8330578], [-104.6931033, 39.8329683], [-104.6931324, 39.8328894], [-104.6931525, 39.8328301], [-104.6931645, 39.8327466], [-104.6931613, 39.8326571]]}, "properties": {"class": "secondary"}}, {"type": "Feature", "geometry": {"type": "LineString", "coordinates": [[-104.692891, 39.8334347], [-104.69292, 39.8333242], [-104.6929491, 39.8332442], [-104.6929749, 39.8331959], [-104.6930151, 39.8331283], [-104.6930621, 39.8330578]]}, "properties": {"class": "secondary"}}, {"type": "Feature", "geometry": {"type": "LineString", "coordinates": [[-104.6929908, 39.8348507], [-104.6929471, 39.8347643], [-104.6929238, 39.8347035], [-104.6928989, 39.8346229], [-104.6928746, 39.8345338], [-104.692865, 39.8344994], [-104.6928628, 39.8344595]]}, "properties": {"class": "tertiary"}}, {"type": "Feature", "geometry": {"type": "LineString", "coordinates": [[-104.6929908, 39.8348507], [-104.6929454, 39.8349308], [-104.6929124, 39.8349924], [-104.6928822, 39.8350761], [-104.692858, 39.8352312]]}, "properties": {"class": "tertiary"}}, {"type": "Feature", "geometry": {"type": "LineString", "coordinates": [[-104.693103, 39.8343951], [-104.6930997, 39.8345129], [-104.6930935, 39.8345873], [-104.6930784, 39.834679], [-104.6930601, 39.8347231], [-104.6930466, 39.8347557], [-104.6929908, 39.8348507]]}, "properties": {"class": "tertiary"}}, {"type": "Feature", "geometry": {"type": "LineString", "coordinates": [[-104.6928628, 39.8344595], [-104.6928804, 39.8337945], [-104.692891, 39.8334347]]}, "properties": {"class": "secondary"}}, {"type": "Feature", "geometry": {"type": "LineString", "coordinates": [[-104.6931447, 39.8333577], [-104.6931182, 39.8340007], [-104.693103, 39.8343951]]}, "properties": {"class": "secondary"}}, {"type": "Feature", "geometry": {"type": "LineString", "coordinates": [[-104.6777053, 39.8520481], [-104.6783502, 39.8520528], [-104.6785567, 39.85205], [-104.6787717, 39.8520383], [-104.6789734, 39.8520199], [-104.6791881, 39.8519922], [-104.6793893, 39.8519547], [-104.6795938, 39.8519072], [-104.6798039, 39.8518523], [-104.6800003, 39.8517917], [-104.6801943, 39.8517258], [-104.680259, 39.8517013], [-104.680344, 39.8516687]]}, "properties": {"class": "tertiary"}}, {"type": "Feature", "geometry": {"type": "LineString", "coordinates": [[-104.692852, 39.8358495], [-104.6928517, 39.8359468], [-104.6928508, 39.8361968], [-104.6928517, 39.8363118], [-104.6928677, 39.8363889], [-104.6928875, 39.8364515], [-104.6929224, 39.8365156], [-104.6929572, 39.8365768]]}, "properties": {"class": "tertiary"}}, {"type": "Feature", "geometry": {"type": "LineString", "coordinates": [[-104.6929572, 39.8365768], [-104.692983, 39.8365136], [-104.6930087, 39.8364503], [-104.6930231, 39.8363873], [-104.6930374, 39.8363243], [-104.6930399, 39.836199], [-104.6930438, 39.8356758], [-104.6930486, 39.8356104], [-104.6930604, 39.8355423]]}, "properties": {"class": "tertiary"}}, {"type": "Feature", "geometry": {"type": "LineString", "coordinates": [[-104.6809062, 39.833377], [-104.6783065, 39.8333715], [-104.677468, 39.8333672], [-104.6772545, 39.8333656]]}, "properties": {"class": "primary"}}, {"type": "Feature", "geometry": {"type": "LineString", "coordinates": [[-104.6723874, 39.8412542], [-104.6724793, 39.8413554]]}, "properties": {"class": "primary"}}]}